{
  "type": "FeatureCollection",
  "features": [
    {
      "type": "Feature",
      "properties": {
        "norad_id": 39777,
        "name": "IRIDIUM 33 DEB",
        "group": "iridium-33-debris",
        "lat": -33.45351479870567,
        "lon": -9.171044958072383,
        "alt_km": 698.0977262209244,
        "timestamp": "2025-12-26T22:28:06.170809+00:00",
        "meta_object_name": "IRIDIUM 33 DEB",
        "meta_object_id": "1997-051AAJ",
        "meta_epoch": "2025-12-26T05:00:39.510432",
        "meta_mean_motion": 14.56743034,
        "meta_eccentricity": 0.0060556,
        "meta_inclination": 85.9634,
        "meta_ra_of_asc_node": 168.5079,
        "meta_arg_of_pericenter": 141.5358,
        "meta_mean_anomaly": 219.019,
        "meta_ephemeris_type": 0,
        "meta_classification_type": "U",
        "meta_norad_cat_id": 39777,
        "meta_element_set_no": 999,
        "meta_rev_at_epoch": 60381,
        "meta_bstar": 0.0028913,
        "meta_mean_motion_dot": 0.00013286,
        "meta_mean_motion_ddot": 0,
        "tle_line1": "1 39777U 97051AAJ 25360.20879063  .00013286  00000+0  28913-2 0  9990",
        "tle_line2": "2 39777  85.9634 168.5079 0060556 141.5358 219.0190 14.56743034603812"
      },
      "geometry": {
        "type": "Point",
        "coordinates": [
          -9.171044958072383,
          -33.45351479870567
        ]
      }
    },
    {
      "type": "Feature",
      "properties": {
        "norad_id": 39778,
        "name": "IRIDIUM 33 DEB",
        "group": "iridium-33-debris",
        "lat": -68.60529985252934,
        "lon": 27.754900562394663,
        "alt_km": 716.867554487967,
        "timestamp": "2025-12-26T22:28:06.170819+00:00",
        "meta_object_name": "IRIDIUM 33 DEB",
        "meta_object_id": "1997-051AAK",
        "meta_epoch": "2025-12-25T20:21:50.179680",
        "meta_mean_motion": 14.54348903,
        "meta_eccentricity": 0.00065112,
        "meta_inclination": 86.3769,
        "meta_ra_of_asc_node": 37.534,
        "meta_arg_of_pericenter": 359.9142,
        "meta_mean_anomaly": 0.2063,
        "meta_ephemeris_type": 0,
        "meta_classification_type": "U",
        "meta_norad_cat_id": 39778,
        "meta_element_set_no": 999,
        "meta_rev_at_epoch": 60883,
        "meta_bstar": 0.00084026877,
        "meta_mean_motion_dot": 3.588e-05,
        "meta_mean_motion_ddot": 0,
        "tle_line1": "1 39778U 97051AAK 25359.84849745  .00003588  00000+0  84027-3 0  9996",
        "tle_line2": "2 39778  86.3769  37.5340 0006511 359.9142   0.2063 14.54348903608830"
      },
      "geometry": {
        "type": "Point",
        "coordinates": [
          27.754900562394663,
          -68.60529985252934
        ]
      }
    },
    {
      "type": "Feature",
      "properties": {
        "norad_id": 39781,
        "name": "IRIDIUM 33 DEB",
        "group": "iridium-33-debris",
        "lat": 44.16816333848108,
        "lon": 68.59225335207842,
        "alt_km": 820.3040212060923,
        "timestamp": "2025-12-26T22:28:06.170829+00:00",
        "meta_object_name": "IRIDIUM 33 DEB",
        "meta_object_id": "1997-051AAN",
        "meta_epoch": "2025-12-26T00:09:41.273280",
        "meta_mean_motion": 14.20964815,
        "meta_eccentricity": 0.01723668,
        "meta_inclination": 86.3698,
        "meta_ra_of_asc_node": 252.511,
        "meta_arg_of_pericenter": 230.4954,
        "meta_mean_anomaly": 195.4493,
        "meta_ephemeris_type": 0,
        "meta_classification_type": "U",
        "meta_norad_cat_id": 39781,
        "meta_element_set_no": 999,
        "meta_rev_at_epoch": 8295,
        "meta_bstar": 0.0048537069,
        "meta_mean_motion_dot": 0.00012243,
        "meta_mean_motion_ddot": 0,
        "tle_line1": "1 39781U 97051AAN 25360.00672770  .00012243  00000+0  48537-2 0  9995",
        "tle_line2": "2 39781  86.3698 252.5110 0172366 230.4954 195.4493 14.20964815 82957"
      },
      "geometry": {
        "type": "Point",
        "coordinates": [
          68.59225335207842,
          44.16816333848108
        ]
      }
    },
    {
      "type": "Feature",
      "properties": {
        "norad_id": 40996,
        "name": "IRIDIUM 33 DEB",
        "group": "iridium-33-debris",
        "lat": -38.52069052489149,
        "lon": 177.68320415392114,
        "alt_km": 589.2496236130819,
        "timestamp": "2025-12-26T22:28:06.170840+00:00",
        "meta_object_name": "IRIDIUM 33 DEB",
        "meta_object_id": "1997-051ABJ",
        "meta_epoch": "2025-12-25T10:52:55.970112",
        "meta_mean_motion": 14.97048042,
        "meta_eccentricity": 0.0010436,
        "meta_inclination": 86.3519,
        "meta_ra_of_asc_node": 355.4655,
        "meta_arg_of_pericenter": 27.9702,
        "meta_mean_anomaly": 124.5027,
        "meta_ephemeris_type": 0,
        "meta_classification_type": "U",
        "meta_norad_cat_id": 40996,
        "meta_element_set_no": 999,
        "meta_rev_at_epoch": 62678,
        "meta_bstar": 0.0031302,
        "meta_mean_motion_dot": 0.00036257,
        "meta_mean_motion_ddot": 0,
        "tle_line1": "1 40996U 97051ABJ 25359.45342558  .00036257  00000+0  31302-2 0  9993",
        "tle_line2": "2 40996  86.3519 355.4655 0010436  27.9702 124.5027 14.97048042626785"
      },
      "geometry": {
        "type": "Point",
        "coordinates": [
          177.68320415392114,
          -38.52069052489149
        ]
      }
    },
    {
      "type": "Feature",
      "properties": {
        "norad_id": 40998,
        "name": "IRIDIUM 33 DEB",
        "group": "iridium-33-debris",
        "lat": -22.019827720468,
        "lon": -130.9428676578524,
        "alt_km": 752.6226368037032,
        "timestamp": "2025-12-26T22:28:06.170850+00:00",
        "meta_object_name": "IRIDIUM 33 DEB",
        "meta_object_id": "1997-051ABL",
        "meta_epoch": "2025-12-26T10:09:43.353216",
        "meta_mean_motion": 14.4513968,
        "meta_eccentricity": 0.0008602,
        "meta_inclination": 86.3812,
        "meta_ra_of_asc_node": 47.8096,
        "meta_arg_of_pericenter": 47.0142,
        "meta_mean_anomaly": 8.9419,
        "meta_ephemeris_type": 0,
        "meta_classification_type": "U",
        "meta_norad_cat_id": 40998,
        "meta_element_set_no": 999,
        "meta_rev_at_epoch": 6879,
        "meta_bstar": 0.00044303,
        "meta_mean_motion_dot": 1.57e-05,
        "meta_mean_motion_ddot": 0,
        "tle_line1": "1 40998U 97051ABL 25360.42341844  .00001570  00000+0  44303-3 0  9997",
        "tle_line2": "2 40998  86.3812  47.8096 0008602  47.0142   8.9419 14.45139680 68790"
      },
      "geometry": {
        "type": "Point",
        "coordinates": [
          -130.9428676578524,
          -22.019827720468
        ]
      }
    },
    {
      "type": "Feature",
      "properties": {
        "norad_id": 46435,
        "name": "IRIDIUM 33 DEB",
        "group": "iridium-33-debris",
        "lat": 26.500326557351322,
        "lon": 5.978954485891693,
        "alt_km": 743.6102132481556,
        "timestamp": "2025-12-26T22:28:06.170861+00:00",
        "meta_object_name": "IRIDIUM 33 DEB",
        "meta_object_id": "1997-051ABN",
        "meta_epoch": "2025-12-23T07:26:56.673024",
        "meta_mean_motion": 14.32901113,
        "meta_eccentricity": 0.02063954,
        "meta_inclination": 86.2811,
        "meta_ra_of_asc_node": 189.3996,
        "meta_arg_of_pericenter": 241.8575,
        "meta_mean_anomaly": 300.4526,
        "meta_ephemeris_type": 0,
        "meta_classification_type": "U",
        "meta_norad_cat_id": 46435,
        "meta_element_set_no": 999,
        "meta_rev_at_epoch": 8067,
        "meta_bstar": 0.0098042113,
        "meta_mean_motion_dot": 0.00034078,
        "meta_mean_motion_ddot": 0,
        "tle_line1": "1 46435U 97051ABN 25357.31037816  .00034078  00000+0  98042-2 0  9991",
        "tle_line2": "2 46435  86.2811 189.3996 0206395 241.8575 300.4526 14.32901113 80678"
      },
      "geometry": {
        "type": "Point",
        "coordinates": [
          5.978954485891693,
          26.500326557351322
        ]
      }
    },
    {
      "type": "Feature",
      "properties": {
        "norad_id": 46734,
        "name": "IRIDIUM 33 DEB",
        "group": "iridium-33-debris",
        "lat": 80.94977558772794,
        "lon": 152.41363585625447,
        "alt_km": 770.9053979148648,
        "timestamp": "2025-12-26T22:28:06.170874+00:00",
        "meta_object_name": "IRIDIUM 33 DEB",
        "meta_object_id": "1997-051ABR",
        "meta_epoch": "2025-12-26T17:50:24.765216",
        "meta_mean_motion": 14.41977609,
        "meta_eccentricity": 0.0037286,
        "meta_inclination": 86.2643,
        "meta_ra_of_asc_node": 356.7146,
        "meta_arg_of_pericenter": 287.6839,
        "meta_mean_anomaly": 250.0616,
        "meta_ephemeris_type": 0,
        "meta_classification_type": "U",
        "meta_norad_cat_id": 46734,
        "meta_element_set_no": 999,
        "meta_rev_at_epoch": 63212,
        "meta_bstar": 0.0011195,
        "meta_mean_motion_dot": 3.719e-05,
        "meta_mean_motion_ddot": 0,
        "tle_line1": "1 46734U 97051ABR 25360.74334219  .00003719  00000+0  11195-2 0  9993",
        "tle_line2": "2 46734  86.2643 356.7146 0037286 287.6839 250.0616 14.41977609632128"
      },
      "geometry": {
        "type": "Point",
        "coordinates": [
          152.41363585625447,
          80.94977558772794
        ]
      }
    }
  ]
}